              M50 Cartesian                         M50 Keplerian  
    -----------------------------------       --------------------------------
     X    =       -2870545.58                 A    =         6776969.82  meter
     Y    =        3201661.96  meter          E    =           .0014286
     Z    =       -5250079.61                 I    =           51.31761
     XDOT =      -4974.977171                 Wp   =           97.55410
     YDOT =      -5767.445149  meter/sec      RA   =          234.04758  deg
     ZDOT =       -800.757860                 TA   =          164.77016
                                              MA   =          164.72711
                                              Ha   =            220.952  n.mi
                                              Hp   =            214.218
 
              M50 Cartesian                         J2K Cartesian  
    -----------------------------------       --------------------------------
     X    =       -9417800.45                 X    =        -2880631.56
     Y    =       10504140.29  feet           Y    =         3169504.72  meter
     Z    =      -17224670.63                 Z    =        -5264048.71
     XDOT =     -16322.103578                 XDOT =       -4906.224709
     YDOT =     -18922.064137  feet/sec       YDOT =       -5822.694305  meter/sec
     ZDOT =      -2627.158332                 ZDOT =        -824.757340
 
              TDR Cartesian                         TDR Cartesian  
    -----------------------------------       --------------------------------
     X    =      -12466673.82                 X    =        -3799842.18
     Y    =        6442479.06  feet           Y    =         1963667.62  meter
     Z    =      -17285766.23                 Z    =        -5268701.55
     XDOT =      -7919.617640                 XDOT =       -2413.899457
     YDOT =     -22617.943380  feet/sec       YDOT =       -6893.949142  meter/sec
     ZDOT =      -2730.256286                 ZDOT =        -832.182116
  
  
    The mean element set is posted at the UTC for which position is
    just north of the next ascending node relative to the above
    vector time
 
 
    TWO LINE MEAN ELEMENT SET
  
    ISS
    1 25544U 98067A   16061.51752129  .00016717  00000-0  10270-3 0  9014
    2 25544  51.6382 234.9693 0003444 184.3473 175.7651 15.54339926 28232
  
  
    Satellite: ISS
    Catalog Number: 25544
    Epoch time:      16061.51752129   =   yrday.fracday
    Element set:     901
    Inclination:       51.6382  deg
    RA of node:       234.9693  deg
    Eccentricity:     .0003444     
    Arg of perigee:   184.3473  deg
    Mean anomaly:     175.7651  deg
    Mean motion:   15.54339926  rev/day
    Decay rate:    1.67170E-04  rev/day^2
    Epoch rev:            2823
    Checksum:              320
 
 
    Coasting Arc #3 (Orbit 2831)
    ---------------------------------------
 
    Vector Time (GMT): 2016/062/01:02:30.000
    Vector Time (MET): N/A
    Weight (LBS)     : 890989.4
 
              M50 Cartesian                         M50 Keplerian  
    -----------------------------------       --------------------------------
     X    =        1198855.82                 A    =         6778878.26  meter
     Y    =       -4639839.74  meter          E    =           .0008919
     Z    =        4792218.96                 I    =           51.33476
     XDOT =       5924.825198                 Wp   =          139.05017
     YDOT =       4159.059205  meter/sec      RA   =          231.34247  deg
     ZDOT =       2535.311771                 TA   =          285.85500
                                              MA   =          285.95330
                                              Ha   =            220.762  n.mi
                                              Hp   =            214.426
 
              M50 Cartesian                         J2K Cartesian  
    -----------------------------------       --------------------------------
     X    =        3933254.01                 X    =         1227372.20
     Y    =      -15222571.32  feet           Y    =        -4626273.46  meter
     Z    =       15722503.14                 Z    =         4798112.33
     XDOT =      19438.402882                 XDOT =        5865.561866
     YDOT =      13645.207365  feet/sec       YDOT =        4224.983402  meter/sec
     ZDOT =       8317.952004                 ZDOT =        2563.948542
 
              TDR Cartesian                         TDR Cartesian  
    -----------------------------------       --------------------------------
     X    =       -5135016.55                 X    =        -1565153.04
     Y    =       14832413.71  feet           Y    =         4520919.70  meter
     Z    =       15748821.49                 Z    =         4800240.79
     XDOT =     -17049.329245                 XDOT =       -5196.635554
     YDOT =     -14897.853057  feet/sec       YDOT =       -4540.865612  meter/sec
     ZDOT =       8441.431162                 ZDOT =        2572.948218
  
  
    The mean element set is posted at the UTC for which position is
    just north of the next ascending node relative to the above
    vector time
 
 
    TWO LINE MEAN ELEMENT SET
  
    ISS
    1 25544U 98067A   16062.09616032  .00016717  00000-0  10270-3 0  9021
    2 25544  51.6385 232.0867 0003183 190.1071 170.0019 15.54358692 28323
  
  
    Satellite: ISS
    Catalog Number: 25544
    Epoch time:      16062.09616032   =   yrday.fracday
    Element set:     902
    Inclination:       51.6385  deg
    RA of node:       232.0867  deg
    Eccentricity:     .0003183     
    Arg of perigee:   190.1071  deg
    Mean anomaly:     170.0019  deg
    Mean motion:   15.54358692  rev/day
    Decay rate:    1.67170E-04  rev/day^2
    Epoch rev:            2832
    Checksum:              288
 
 
    Coasting Arc #4 (Orbit 2846)
    ---------------------------------------
 
    Vector Time (GMT): 2016/063/01:02:30.000
    Vector Time (MET): N/A
    Weight (LBS)     : 890989.4
 
              M50 Cartesian                         M50 Keplerian  
    -----------------------------------       --------------------------------
     X    =       -2597087.19                 A    =         6776842.28  meter
     Y    =        3388697.33  meter          E    =           .0014108
     Z    =       -5274819.17                 I    =           51.34872
     XDOT =      -5600.423338                 Wp   =           97.60116
     YDOT =      -5191.749449  meter/sec      RA   =          226.32032  deg
     ZDOT =       -581.099347                 TA   =          166.84194
                                              MA   =          166.80510
                                              Ha   =            220.735  n.mi
                                              Hp   =            214.379
 
              M50 Cartesian                         J2K Cartesian  
    -----------------------------------       --------------------------------
     X    =       -8520627.27                 X    =        -2609164.88
     Y    =       11117773.39  feet           Y    =         3359587.01  meter
     Z    =      -17305837.18                 Z    =        -5287464.66
     XDOT =     -18374.092317                 XDOT =       -5539.128973
     YDOT =     -17033.298717  feet/sec       YDOT =       -5254.034432  meter/sec
     ZDOT =      -1906.493919                 ZDOT =        -608.155216
 
              TDR Cartesian                         TDR Cartesian  
    -----------------------------------       --------------------------------
     X    =        9160347.28                 X    =         2792073.85
     Y    =      -10505894.99  feet           Y    =        -3202196.79  meter
     Z    =      -17361226.42                 Z    =        -5291701.81
     XDOT =      16369.153865                 XDOT =        4989.318098
     YDOT =      17598.539993  feet/sec       YDOT =        5364.034990  meter/sec
     ZDOT =      -2022.967053                 ZDOT =        -616.600358
  
  
    The mean element set is posted at the UTC for which position is
    just north of the next ascending node relative to the above
    vector time
 
 
    TWO LINE MEAN ELEMENT SET
  
    ISS
    1 25544U 98067A   16063.06055218  .00016717  00000-0  10270-3 0  9033
    2 25544  51.6386 227.2763 0003075 191.9980 168.1100 15.54348334 28470
  
  
    Satellite: ISS
    Catalog Number: 25544
    Epoch time:      16063.06055218   =   yrday.fracday
    Element set:     903
    Inclination:       51.6386  deg
    RA of node:       227.2763  deg
    Eccentricity:     .0003075     
    Arg of perigee:   191.9980  deg
    Mean anomaly:     168.1100  deg
    Mean motion:   15.54348334  rev/day
    Decay rate:    1.67170E-04  rev/day^2
    Epoch rev:            2847
    Checksum:              307
 
 
    Coasting Arc #5 (Orbit 2862)
    ---------------------------------------
 
    Vector Time (GMT): 2016/064/01:02:30.000
    Vector Time (MET): N/A
    Weight (LBS)     : 890989.4
 
              M50 Cartesian                         M50 Keplerian  
    -----------------------------------       --------------------------------
     X    =        3930184.10                 A    =         6777299.01  meter
     Y    =       -2012998.92  meter          E    =           .0002805
     Z    =        5138845.69                 I    =           51.37346
     XDOT =       4837.747455                 Wp   =           96.16079
     YDOT =       5777.537126  meter/sec      RA   =          221.29872  deg
     ZDOT =      -1436.335578                 TA   =            7.70847
                                              MA   =            7.70416
                                              Ha   =            220.487  n.mi
                                              Hp   =            214.555
 
